[{"OBJECT_NAME":"O3B FM10","OBJECT_ID":"2014-083A","EPOCH":"2026-03-02T14:49:23.066112","MEAN_MOTION":5.00115198,"ECCENTRICITY":0.0002688,"INCLINATION":0.0434,"RA_OF_ASC_NODE":347.0671,"ARG_OF_PERICENTER":352.6649,"MEAN_ANOMALY":20.25,"EPHEMERIS_TYPE":0,"CLASSIFICATION_TYPE":"U","NORAD_CAT_ID":40348,"ELEMENT_SET_NO":999,"REV_AT_EPOCH":20456,"BSTAR":0,"MEAN_MOTION_DOT":-2.9e-7,"MEAN_MOTION_DDOT":0},{"OBJECT_NAME":"O3B FM11","OBJECT_ID":"2014-083B","EPOCH":"2026-03-02T15:07:42.427488","MEAN_MOTION":5.00115559,"ECCENTRICITY":0.0003144,"INCLINATION":0.0565,"RA_OF_ASC_NODE":0.5014,"ARG_OF_PERICENTER":329.7416,"MEAN_ANOMALY":29.7318,"EPHEMERIS_TYPE":0,"CLASSIFICATION_TYPE":"U","NORAD_CAT_ID":40349,"ELEMENT_SET_NO":999,"REV_AT_EPOCH":20457,"BSTAR":0,"MEAN_MOTION_DOT":-2.9e-7,"MEAN_MOTION_DDOT":0},{"OBJECT_NAME":"O3B FM12","OBJECT_ID":"2014-083C","EPOCH":"2026-03-02T10:58:53.069952","MEAN_MOTION":5.00115928,"ECCENTRICITY":0.0002644,"INCLINATION":0.056,"RA_OF_ASC_NODE":359.8037,"ARG_OF_PERICENTER":336.7536,"MEAN_ANOMALY":23.4233,"EPHEMERIS_TYPE":0,"CLASSIFICATION_TYPE":"U","NORAD_CAT_ID":40350,"ELEMENT_SET_NO":999,"REV_AT_EPOCH":20458,"BSTAR":0,"MEAN_MOTION_DOT":-2.9e-7,"MEAN_MOTION_DDOT":0},{"OBJECT_NAME":"O3B FM9","OBJECT_ID":"2014-083D","EPOCH":"2026-03-02T11:37:31.073952","MEAN_MOTION":5.00115883,"ECCENTRICITY":0.0002738,"INCLINATION":0.0577,"RA_OF_ASC_NODE":0.8861,"ARG_OF_PERICENTER":339.0567,"MEAN_ANOMALY":20.039,"EPHEMERIS_TYPE":0,"CLASSIFICATION_TYPE":"U","NORAD_CAT_ID":40351,"ELEMENT_SET_NO":999,"REV_AT_EPOCH":20473,"BSTAR":0,"MEAN_MOTION_DOT":-2.9e-7,"MEAN_MOTION_DDOT":0},{"OBJECT_NAME":"ASTRA 2G","OBJECT_ID":"2014-089A","EPOCH":"2026-03-02T17:40:21.040032","MEAN_MOTION":1.00269793,"ECCENTRICITY":0.0004279,"INCLINATION":0.0222,"RA_OF_ASC_NODE":5.7242,"ARG_OF_PERICENTER":20.2889,"MEAN_ANOMALY":67.7809,"EPHEMERIS_TYPE":0,"CLASSIFICATION_TYPE":"U","NORAD_CAT_ID":40364,"ELEMENT_SET_NO":999,"REV_AT_EPOCH":4090,"BSTAR":0,"MEAN_MOTION_DOT":0,"MEAN_MOTION_DDOT":0},{"OBJECT_NAME":"SES-9","OBJECT_ID":"2016-013A","EPOCH":"2026-03-02T15:09:16.572384","MEAN_MOTION":1.00271455,"ECCENTRICITY":0.0001439,"INCLINATION":0.0396,"RA_OF_ASC_NODE":298.9787,"ARG_OF_PERICENTER":91.8068,"MEAN_ANOMALY":105.2189,"EPHEMERIS_TYPE":0,"CLASSIFICATION_TYPE":"U","NORAD_CAT_ID":41380,"ELEMENT_SET_NO":999,"REV_AT_EPOCH":3637,"BSTAR":0,"MEAN_MOTION_DOT":-3.62e-6,"MEAN_MOTION_DDOT":0},{"OBJECT_NAME":"SES-10","OBJECT_ID":"2017-017A","EPOCH":"2026-03-02T13:47:47.841792","MEAN_MOTION":1.00271121,"ECCENTRICITY":0.0002527,"INCLINATION":0.0179,"RA_OF_ASC_NODE":73.7682,"ARG_OF_PERICENTER":270.42,"MEAN_ANOMALY":316.2019,"EPHEMERIS_TYPE":0,"CLASSIFICATION_TYPE":"U","NORAD_CAT_ID":42432,"ELEMENT_SET_NO":999,"REV_AT_EPOCH":3268,"BSTAR":0,"MEAN_MOTION_DOT":-2.9e-6,"MEAN_MOTION_DDOT":0},{"OBJECT_NAME":"SES-15","OBJECT_ID":"2017-026A","EPOCH":"2026-03-02T16:55:25.346208","MEAN_MOTION":1.00271134,"ECCENTRICITY":7.08e-5,"INCLINATION":0.0247,"RA_OF_ASC_NODE":275.7633,"ARG_OF_PERICENTER":61.025,"MEAN_ANOMALY":308.3599,"EPHEMERIS_TYPE":0,"CLASSIFICATION_TYPE":"U","NORAD_CAT_ID":42709,"ELEMENT_SET_NO":999,"REV_AT_EPOCH":636,"BSTAR":0,"MEAN_MOTION_DOT":4.3e-7,"MEAN_MOTION_DDOT":0},{"OBJECT_NAME":"SES-11 (ECHOSTAR 105)","OBJECT_ID":"2017-063A","EPOCH":"2026-03-02T15:19:39.036864","MEAN_MOTION":1.00271979,"ECCENTRICITY":0.0002941,"INCLINATION":0.0322,"RA_OF_ASC_NODE":69.668,"ARG_OF_PERICENTER":266.261,"MEAN_ANOMALY":309.4405,"EPHEMERIS_TYPE":0,"CLASSIFICATION_TYPE":"U","NORAD_CAT_ID":42967,"ELEMENT_SET_NO":999,"REV_AT_EPOCH":3065,"BSTAR":0,"MEAN_MOTION_DOT":-1.06e-6,"MEAN_MOTION_DDOT":0},{"OBJECT_NAME":"SES-14","OBJECT_ID":"2018-012B","EPOCH":"2026-03-02T17:18:45.610272","MEAN_MOTION":1.0027087,"ECCENTRICITY":0.0001085,"INCLINATION":0.0152,"RA_OF_ASC_NODE":74.0832,"ARG_OF_PERICENTER":260.4461,"MEAN_ANOMALY":38.1452,"EPHEMERIS_TYPE":0,"CLASSIFICATION_TYPE":"U","NORAD_CAT_ID":43175,"ELEMENT_SET_NO":999,"REV_AT_EPOCH":595,"BSTAR":0,"MEAN_MOTION_DOT":-2.95e-6,"MEAN_MOTION_DDOT":0},{"OBJECT_NAME":"O3B FM15","OBJECT_ID":"2018-024A","EPOCH":"2026-03-02T03:37:58.377504","MEAN_MOTION":5.0011554,"ECCENTRICITY":0.00026853,"INCLINATION":0.0483,"RA_OF_ASC_NODE":0.6162,"ARG_OF_PERICENTER":337.4441,"MEAN_ANOMALY":21.9208,"EPHEMERIS_TYPE":0,"CLASSIFICATION_TYPE":"U","NORAD_CAT_ID":43231,"ELEMENT_SET_NO":999,"REV_AT_EPOCH":14567,"BSTAR":0,"MEAN_MOTION_DOT":-2.9e-7,"MEAN_MOTION_DDOT":0},{"OBJECT_NAME":"O3B FM16","OBJECT_ID":"2018-024B","EPOCH":"2026-02-28T19:18:29.707200","MEAN_MOTION":5.00115846,"ECCENTRICITY":0.0002785,"INCLINATION":0.0446,"RA_OF_ASC_NODE":2.3185,"ARG_OF_PERICENTER":333.1821,"MEAN_ANOMALY":24.4786,"EPHEMERIS_TYPE":0,"CLASSIFICATION_TYPE":"U","NORAD_CAT_ID":43232,"ELEMENT_SET_NO":999,"REV_AT_EPOCH":14552,"BSTAR":0,"MEAN_MOTION_DOT":-2.8e-7,"MEAN_MOTION_DDOT":0},{"OBJECT_NAME":"O3B FM14","OBJECT_ID":"2018-024C","EPOCH":"2026-03-02T15:27:45.584640","MEAN_MOTION":5.00115628,"ECCENTRICITY":0.0002846,"INCLINATION":0.0433,"RA_OF_ASC_NODE":1.2947,"ARG_OF_PERICENTER":340.5543,"MEAN_ANOMALY":18.1335,"EPHEMERIS_TYPE":0,"CLASSIFICATION_TYPE":"U","NORAD_CAT_ID":43233,"ELEMENT_SET_NO":999,"REV_AT_EPOCH":14561,"BSTAR":0,"MEAN_MOTION_DOT":-2.9e-7,"MEAN_MOTION_DDOT":0},{"OBJECT_NAME":"O3B FM13","OBJECT_ID":"2018-024D","EPOCH":"2026-03-02T17:02:35.255328","MEAN_MOTION":5.00115574,"ECCENTRICITY":0.0004321,"INCLINATION":0.0478,"RA_OF_ASC_NODE":329.88,"ARG_OF_PERICENTER":333.3966,"MEAN_ANOMALY":56.6746,"EPHEMERIS_TYPE":0,"CLASSIFICATION_TYPE":"U","NORAD_CAT_ID":43234,"ELEMENT_SET_NO":999,"REV_AT_EPOCH":14572,"BSTAR":0,"MEAN_MOTION_DOT":-2.9e-7,"MEAN_MOTION_DDOT":0},{"OBJECT_NAME":"SES-12","OBJECT_ID":"2018-049A","EPOCH":"2026-03-02T20:26:11.227776","MEAN_MOTION":1.00268084,"ECCENTRICITY":0.0002165,"INCLINATION":0.0205,"RA_OF_ASC_NODE":117.709,"ARG_OF_PERICENTER":182.3965,"MEAN_ANOMALY":262.082,"EPHEMERIS_TYPE":0,"CLASSIFICATION_TYPE":"U","NORAD_CAT_ID":43488,"ELEMENT_SET_NO":999,"REV_AT_EPOCH":2835,"BSTAR":0,"MEAN_MOTION_DOT":0,"MEAN_MOTION_DDOT":0},{"OBJECT_NAME":"O3B FM20","OBJECT_ID":"2019-020A","EPOCH":"2026-03-02T16:05:13.767072","MEAN_MOTION":5.00115461,"ECCENTRICITY":0.0002818,"INCLINATION":0.0516,"RA_OF_ASC_NODE":359.653,"ARG_OF_PERICENTER":330.0771,"MEAN_ANOMALY":30.2463,"EPHEMERIS_TYPE":0,"CLASSIFICATION_TYPE":"U","NORAD_CAT_ID":44112,"ELEMENT_SET_NO":999,"REV_AT_EPOCH":12624,"BSTAR":0,"MEAN_MOTION_DOT":-2.9e-7,"MEAN_MOTION_DDOT":0},{"OBJECT_NAME":"O3B FM19","OBJECT_ID":"2019-020B","EPOCH":"2026-02-27T21:34:30.034272","MEAN_MOTION":5.00116325,"ECCENTRICITY":0.0004795,"INCLINATION":0.0602,"RA_OF_ASC_NODE":347.5601,"ARG_OF_PERICENTER":353.9797,"MEAN_ANOMALY":18.4356,"EPHEMERIS_TYPE":0,"CLASSIFICATION_TYPE":"U","NORAD_CAT_ID":44113,"ELEMENT_SET_NO":999,"REV_AT_EPOCH":12597,"BSTAR":0,"MEAN_MOTION_DOT":-2.7e-7,"MEAN_MOTION_DDOT":0}]
